GPS BIIF-5  (PRN 30)    
1 39533U 14008A   24142.34031183  .00000094  00000+0  00000+0 0  9993
2 39533  53.5976 180.1599 0072747 219.9918 139.5551  2.00566951 74508
